BEIDOU 3 (C01)          
1 36287U 10001A   22054.84910273 -.00000284  00000+0  00000+0 0  9998
2 36287   1.8849  47.6584 0002674  11.4770 180.5980  1.00269184 44371
BEIDOU 5 (C06)          
1 36828U 10036A   22055.51246560 -.00000135  00000+0  00000+0 0  9998
2 36828  54.1925 177.2636 0027539 181.0088  89.1129  1.00279168 42447
BEIDOU 6 (C04)          
1 37210U 10057A   22055.64966241 -.00000117  00000+0  00000+0 0  9996
2 37210   0.9641  53.9520 0003977 158.2774 336.1883  1.00271714 41504
BEIDOU 7 (C07)          
1 37256U 10068A   22055.57674413 -.00000174  00000+0  00000+0 0  9990
2 37256  50.4113 290.9964 0017577 186.4144 352.7294  1.00285698 41010
BEIDOU 8 (C08)          
1 37384U 11013A   22055.43292137 -.00000156  00000+0  00000+0 0  9997
2 37384  60.1348  55.3769 0020007 195.4372 167.5681  1.00285780 39898
BEIDOU 9 (C09)          
1 37763U 11038A   22055.01708229 -.00000070  00000+0  00000+0 0  9998
2 37763  54.4757 179.7462 0089129 225.5048 208.3231  1.00258366 38866
BEIDOU 10 (C10)         
1 37948U 11073A   22054.91881103 -.00000130  00000+0  00000+0 0  9990
2 37948  50.5269 290.6377 0076983 218.5070  71.2695  1.00278640 37615
BEIDOU 11 (C05)         
1 38091U 12008A   22053.77371855  .00000057  00000+0  00000+0 0  9997
2 38091   2.1101  71.8948 0008636 285.6697 132.3309  1.00274173 36680
BEIDOU 12 (C11)         
1 38250U 12018A   22055.63750450 -.00000089  00000+0  00000+0 0  9990
2 38250  56.7217 357.2859 0023479 257.2861 275.1729  1.86234435 66981
BEIDOU 13 (C12)         
1 38251U 12018B   22055.11607758 -.00000087  00000+0  00000+0 0  9994
2 38251  56.6409 356.6350 0014352 263.5117 323.6206  1.86234330 66979
BEIDOU 15 (C14)         
1 38775U 12050B   22055.51276596 -.00000015  00000+0  00000+0 0  9998
2 38775  55.3342 115.4872 0013663 318.6328  11.1807  1.86231325 64359
BEIDOU 16 (C02)         
1 38953U 12059A   22055.50016659 -.00000179  00000+0  00000+0 0  9997
2 38953   1.7087  84.6246 0013294 285.9330  47.7673  1.00268006 34129
BEIDOU 17 (C31)         
1 40549U 15019A   22055.23097191 -.00000172  00000+0  00000+0 0  9993
2 40549  52.0780 314.0710 0035308 190.1937 188.6091  1.00266561 25301
BEIDOU 18 (C57)         
1 40748U 15037A   22055.25448622 -.00000089  00000+0  00000+0 0  9992
2 40748  55.8974 355.5655 0005205 351.5330 237.9961  1.86233338 44809
BEIDOU 19 (C58)         
1 40749U 15037B   22055.35835604 -.00000089  00000+0  00000+0 0  9994
2 40749  55.9000 355.5516 0007016 322.8180 111.3366  1.86232252 44801
BEIDOU 20 (C18)         
1 40938U 15053A   22054.57015234 -.00000097  00000+0  00000+0 0  9993
2 40938  51.6753 277.1790 0042959 193.3084 344.4344  1.00271561 23568
BEIDOU IGSO-6 (C13)     
1 41434U 16021A   22054.47391310 -.00000127  00000+0  00000+0 0  9996
2 41434  57.9320  54.0120 0044136 219.3558 145.2296  1.00264276 21692
BEIDOU-2 G7 (C03)       
1 41586U 16037A   22055.50539966 -.00000359  00000+0  00000+0 0  9994
2 41586   1.7255  67.9028 0008818 359.7783  19.1488  1.00273259 21019
BEIDOU-3 M1 (C19)       
1 43001U 17069A   22055.48484778 -.00000015  00000+0  00000+0 0  9990
2 43001  55.4884 115.4735 0010516 285.0196 182.2481  1.86231623 29294
BEIDOU-3 M2 (C20)       
1 43002U 17069B   22055.17667709 -.00000014  00000+0  00000+0 0  9993
2 43002  55.4867 115.5208 0008288 305.7226 358.0950  1.86231398 29270
BEIDOU-3 M3 (C27)       
1 43107U 18003A   22054.84493760 -.00000087  00000+0  00000+0 0  9995
2 43107  55.3459 356.5472 0004698  35.7883 211.6298  1.86232486 28033
BEIDOU-3 M4 (C28)       
1 43108U 18003B   22055.31952817 -.00000090  00000+0  00000+0 0  9996
2 43108  55.3385 356.5206 0003578 271.4953 338.6389  1.86231052 28040
BEIDOU-3 M5 (C21)       
1 43207U 18018A   22054.33130823 -.00000009  00000+0  00000+0 0  9998
2 43207  55.4457 115.6303 0005809 324.0225  44.4411  1.86231620 27418
BEIDOU-3 M6 (C22)       
1 43208U 18018B   22054.92233361 -.00000012  00000+0  00000+0 0  9999
2 43208  55.4459 115.6156 0008486 294.5908  65.3856  1.86231708 27423
BEIDOU-3 M7 (C29)       
1 43245U 18029A   22055.40764858 -.00000090  00000+0  00000+0 0  9992
2 43245  55.2647 354.3040 0001521 322.7069 212.3337  1.86232563 26584
BEIDOU-3 M8 (C30)       
1 43246U 18029B   22055.24635472 -.00000090  00000+0  10000-3 0  9999
2 43246  55.2616 354.3400 0005217 347.3754 125.9667  1.86232799 26576
BEIDOU IGSO-7 (C16)     
1 43539U 18057A   22055.51756991 -.00000135  00000+0  00000+0 0  9990
2 43539  55.0751 176.7078 0045242 223.7534  49.8647  1.00291898 13378
BEIDOU-3 M9 (C23)       
1 43581U 18062A   22055.56741179  .00000091  00000+0  00000+0 0  9990
2 43581  54.3122 235.9491 0002103 327.5138 211.7777  1.86231942 24327
BEIDOU-3 M10 (C24)      
1 43582U 18062B   22055.43708199  .00000092  00000+0  00000+0 0  9993
2 43582  54.3117 235.9437 0006720  22.6898 160.9055  1.86232228 24329
BEIDOU-3 M11 (C25)      
1 43602U 18067A   22055.36611225  .00000092  00000+0  00000+0 0  9996
2 43602  54.3929 234.5510 0007949  14.9328 162.6764  1.86231671 23816
BEIDOU-3 M12 (C26)      
1 43603U 18067B   22055.49999214  .00000092  00000+0  00000+0 0  9998
2 43603  54.3892 234.5128 0004830  11.1010 166.6688  1.86231645 23836
BEIDOU-3 M13 (C32)      
1 43622U 18072A   22055.25622654 -.00000014  00000+0  00000+0 0  9995
2 43622  55.4138 115.1580 0007246 278.7739 125.1801  1.86231443 23340
BEIDOU-3 M14 (C33)      
1 43623U 18072B   22055.51430211 -.00000015  00000+0  00000+0 0  9992
2 43623  55.4148 115.1423 0004905 299.3273   7.8900  1.86231491 23348
BEIDOU-3 M15 (C34)      
1 43647U 18078A   22055.04654770 -.00000089  00000+0  10000-3 0  9996
2 43647  55.1591 354.4858 0007568 354.3828 254.6370  1.86232761 22847
BEIDOU-3 M16 (C35)      
1 43648U 18078B   22055.48630069 -.00000091  00000+0  00000+0 0  9998
2 43648  55.1552 354.4765 0005355   0.8467  91.0086  1.86232232 22879
BEIDOU-3 G1 (C59)       
1 43683U 18085A   22055.51133050 -.00000283  00000+0  00000+0 0  9990
2 43683   0.8385 186.5619 0001536 347.0273 304.8955  1.00271508 12277
BEIDOU-3 M17 (C36)      
1 43706U 18093A   22054.96445225  .00000094  00000+0  00000+0 0  9992
2 43706  54.3945 235.8463 0007189 283.9131  76.0031  1.86231608 22225
BEIDOU-3 M18 (C37)      
1 43707U 18093B   22055.42411519  .00000092  00000+0  00000+0 0  9992
2 43707  54.3946 235.8220 0006913 320.2317  78.9831  1.86232195 22224
BEIDOU-3 IGSO-1 (C38)   
1 44204U 19023A   22054.03690836 -.00000193  00000+0  00000+0 0  9999
2 44204  56.3882  54.1960 0021141 205.5567  24.1726  1.00293090 10560
BEIDOU-2 G8             
1 44231U 19027A   22055.33239941 -.00000253  00000+0  00000+0 0  9990
2 44231   0.5962  69.1944 0005264 143.1425 205.8886  1.00266234 10291
BEIDOU-3 IGSO-2 (C39)   
1 44337U 19035A   22055.44382005 -.00000147  00000+0  00000+0 0  9990
2 44337  55.1134 172.7321 0022451 189.1808  70.2437  1.00287826  9910
BEIDOU-3 M23 (C45)      
1 44542U 19061A   22054.89985283  .00000095  00000+0  00000+0 0  9993
2 44542  54.6205 235.9680 0008290 353.9746   6.0119  1.86231203 16473
BEIDOU-3 M24 (C46)      
1 44543U 19061B   22055.29956477  .00000093  00000+0  00000+0 0  9990
2 44543  54.6178 235.9246 0005504 353.7375 185.3928  1.86231773 16473
BEIDOU-3 IGSO-3         
1 44709U 19073A   22055.57840127 -.00000164  00000+0  00000+0 0  9992
2 44709  57.4441 297.5562 0019814 174.1941   9.1970  1.00290301  8670
BEIDOU-3 M21            
1 44793U 19078A   22053.94216093 -.00000083  00000+0  10000-3 0  9993
2 44793  55.0088 354.5587 0007194   0.3531 182.3063  1.86232222 15316
BEIDOU-3 M22            
1 44794U 19078B   22055.59706409 -.00000092  00000+0  00000+0 0  9997
2 44794  54.9819 354.4955 0005362 355.7688 127.8711  1.86232722 15342
BEIDOU-3 M19            
1 44864U 19090A   22055.58269075 -.00000015  00000+0  00000+0 0  9996
2 44864  55.3484 115.3641 0017583 267.0509  41.4719  1.86231797 14927
BEIDOU-3 M20            
1 44865U 19090B   22055.44629760 -.00000015  00000+0  00000+0 0  9993
2 44865  55.3494 115.4005 0015796 280.5181  26.4455  1.86231765 14895
BEIDOU-3 G2             
1 45344U 20017A   22055.49929441 -.00000142  00000+0  00000+0 0  9992
2 45344   2.1518 346.6134 0002346  64.5569   2.9089  1.00269872  7488
BEIDOU-3 G3             
1 45807U 20040A   22055.57718022 -.00000357  00000+0  00000+0 0  9990
2 45807   1.7010 300.7135 0007986 348.3140 183.6844  1.00274688  6306
